[{"OBJECT_NAME":"STARLINK-6278","OBJECT_ID":"2023-061AQ","EPOCH":"2026-03-09T08:02:06.834048","MEAN_MOTION":15.02712344,"ECCENTRICITY":0.00016319,"INCLINATION":43.0043,"RA_OF_ASC_NODE":186.1896,"ARG_OF_PERICENTER":305.6689,"MEAN_ANOMALY":54.4001,"EPHEMERIS_TYPE":0,"CLASSIFICATION_TYPE":"U","NORAD_CAT_ID":56412,"ELEMENT_SET_NO":999,"REV_AT_EPOCH":15685,"BSTAR":0.0016133454,"MEAN_MOTION_DOT":0.0002176,"MEAN_MOTION_DDOT":0},{"OBJECT_NAME":"OV1-14 R\/B","OBJECT_ID":"1968-026C","EPOCH":"2026-03-09T17:07:27.641568","MEAN_MOTION":6.98133656,"ECCENTRICITY":0.40203483,"INCLINATION":99.992,"RA_OF_ASC_NODE":340.209,"ARG_OF_PERICENTER":353.0512,"MEAN_ANOMALY":28.2202,"EPHEMERIS_TYPE":0,"CLASSIFICATION_TYPE":"U","NORAD_CAT_ID":3177,"ELEMENT_SET_NO":999,"REV_AT_EPOCH":47026,"BSTAR":0.00089156725,"MEAN_MOTION_DOT":6.42e-6,"MEAN_MOTION_DDOT":0}]
